<?xml version="1.0" encoding="UTF-8"?>
<gpx creator="Garmin Connect" version="1.1"
  xsi:schemaLocation="http://www.topografix.com/GPX/1/1 http://www.topografix.com/GPX/11.xsd"
  xmlns:ns3="http://www.garmin.com/xmlschemas/TrackPointExtension/v1"
  xmlns="http://www.topografix.com/GPX/1/1"
  xmlns:xsi="http://www.w3.org/2001/XMLSchema-instance" xmlns:ns2="http://www.garmin.com/xmlschemas/GpxExtensions/v3">
  <metadata>
    <name>SAT Svartsö</name>
    <link href="connect.garmin.com">
      <text>Garmin Connect</text>
    </link>
    <time>2026-08-07T21:42:45.000Z</time>
  </metadata>
  <trk>
    <name>SAT Svartsö</name>
    <trkseg>
      <trkpt lat="59.43793332204223" lon="18.657090598717332">
        <ele>6.78</ele>
      </trkpt>
      <trkpt lat="59.437901973724365" lon="18.657209873199463">
        <ele>7.02</ele>
      </trkpt>
      <trkpt lat="59.437901973724365" lon="18.65755319595337">
        <ele>8.27</ele>
      </trkpt>
      <trkpt lat="59.4379448890686" lon="18.657896518707275">
        <ele>9.08</ele>
      </trkpt>
      <trkpt lat="59.4380521774292" lon="18.65830421447754">
        <ele>9.9</ele>
      </trkpt>
      <trkpt lat="59.4381919875741" lon="18.658648375421762">
        <ele>10.81</ele>
      </trkpt>
      <trkpt lat="59.43833121098578" lon="18.65899085998535">
        <ele>11.65</ele>
      </trkpt>
      <trkpt lat="59.43833112716675" lon="18.65899085998535">
        <ele>12.2</ele>
      </trkpt>
      <trkpt lat="59.43850857205689" lon="18.659399561583996">
        <ele>12.76</ele>
      </trkpt>
      <trkpt lat="59.43868610076606" lon="18.659808347001672">
        <ele>13.06</ele>
      </trkpt>
      <trkpt lat="59.438863629475236" lon="18.660217048600316">
        <ele>13.14</ele>
      </trkpt>
      <trkpt lat="59.43903931416571" lon="18.660621643066406">
        <ele>13.24</ele>
      </trkpt>
      <trkpt lat="59.439189434051514" lon="18.66079330444336">
        <ele>13.31</ele>
      </trkpt>
      <trkpt lat="59.43920477293432" lon="18.660799087956548">
        <ele>13.3</ele>
      </trkpt>
      <trkpt lat="59.43936109542847" lon="18.660857677459717">
        <ele>13.27</ele>
      </trkpt>
      <trkpt lat="59.43948992528021" lon="18.660836219787598">
        <ele>13.22</ele>
      </trkpt>
      <trkpt lat="59.43976921029389" lon="18.660782407969236">
        <ele>13.23</ele>
      </trkpt>
      <trkpt lat="59.44004774093628" lon="18.660728931427002">
        <ele>13.41</ele>
      </trkpt>
      <trkpt lat="59.44032669067383" lon="18.660728931427002">
        <ele>13.66</ele>
      </trkpt>
      <trkpt lat="59.44056272506714" lon="18.66077184677124">
        <ele>13.7</ele>
      </trkpt>
      <trkpt lat="59.44074536673725" lon="18.660868490114808">
        <ele>13.47</ele>
      </trkpt>
      <trkpt lat="59.440927505493164" lon="18.660964965820312">
        <ele>13.16</ele>
      </trkpt>
      <trkpt lat="59.44110327400267" lon="18.660956164821982">
        <ele>12.72</ele>
      </trkpt>
      <trkpt lat="59.44127853959799" lon="18.660947447642684">
        <ele>12.45</ele>
      </trkpt>
      <trkpt lat="59.44135665893555" lon="18.660943508148193">
        <ele>12.31</ele>
      </trkpt>
      <trkpt lat="59.441517842933536" lon="18.660889696329832">
        <ele>12.33</ele>
      </trkpt>
      <trkpt lat="59.441678524017334" lon="18.660836219787598">
        <ele>12.49</ele>
      </trkpt>
      <trkpt lat="59.44172143936157" lon="18.66102933883667">
        <ele>12.92</ele>
      </trkpt>
      <trkpt lat="59.44174289703369" lon="18.6612868309021">
        <ele>13.53</ele>
      </trkpt>
      <trkpt lat="59.44159277714789" lon="18.661630153656006">
        <ele>14.17</ele>
      </trkpt>
      <trkpt lat="59.44159269332886" lon="18.661630153656006">
        <ele>14.73</ele>
      </trkpt>
      <trkpt lat="59.44161079823971" lon="18.661757055670023">
        <ele>15.39</ele>
      </trkpt>
      <trkpt lat="59.44161415100098" lon="18.66178035736084">
        <ele>15.99</ele>
      </trkpt>
      <trkpt lat="59.44146394729614" lon="18.661952018737793">
        <ele>16.53</ele>
      </trkpt>
      <trkpt lat="59.44146956317127" lon="18.661980014294386">
        <ele>17.1</ele>
      </trkpt>
      <trkpt lat="59.44148540496826" lon="18.66205930709839">
        <ele>17.65</ele>
      </trkpt>
      <trkpt lat="59.44154977798462" lon="18.662123680114746">
        <ele>18.19</ele>
      </trkpt>
      <trkpt lat="59.44155707024038" lon="18.662122590467334">
        <ele>18.62</ele>
      </trkpt>
      <trkpt lat="59.44182872772217" lon="18.662080764770508">
        <ele>19.23</ele>
      </trkpt>
      <trkpt lat="59.44204330444336" lon="18.662381172180176">
        <ele>19.81</ele>
      </trkpt>
      <trkpt lat="59.442150592803955" lon="18.66278886795044">
        <ele>20.14</ele>
      </trkpt>
      <trkpt lat="59.442268861457705" lon="18.66300394758582">
        <ele>20.28</ele>
      </trkpt>
      <trkpt lat="59.442386627197266" lon="18.663218021392822">
        <ele>20.26</ele>
      </trkpt>
      <trkpt lat="59.44249391555786" lon="18.663604259490967">
        <ele>20.0</ele>
      </trkpt>
      <trkpt lat="59.44270849227905" lon="18.663647174835205">
        <ele>19.75</ele>
      </trkpt>
      <trkpt lat="59.44287973456085" lon="18.664079597219825">
        <ele>19.24</ele>
      </trkpt>
      <trkpt lat="59.443050222471356" lon="18.664509756490588">
        <ele>18.67</ele>
      </trkpt>
      <trkpt lat="59.443159103393555" lon="18.66478443145752">
        <ele>18.16</ele>
      </trkpt>
      <trkpt lat="59.443309558555484" lon="18.66498869843781">
        <ele>17.71</ele>
      </trkpt>
      <trkpt lat="59.44345951080322" lon="18.665192127227783">
        <ele>17.27</ele>
      </trkpt>
      <trkpt lat="59.44367450661957" lon="18.665557745844126">
        <ele>16.86</ele>
      </trkpt>
      <trkpt lat="59.443888664245605" lon="18.665921688079834">
        <ele>16.41</ele>
      </trkpt>
      <trkpt lat="59.44401741027832" lon="18.666179180145264">
        <ele>16.13</ele>
      </trkpt>
      <trkpt lat="59.444124698638916" lon="18.666565418243408">
        <ele>15.88</ele>
      </trkpt>
      <trkpt lat="59.44426450878382" lon="18.66683422587812">
        <ele>15.8</ele>
      </trkpt>
      <trkpt lat="59.444403648376465" lon="18.667101860046387">
        <ele>15.82</ele>
      </trkpt>
      <trkpt lat="59.4445538520813" lon="18.667638301849365">
        <ele>15.78</ele>
      </trkpt>
      <trkpt lat="59.444704139605165" lon="18.667895793914795">
        <ele>15.86</ele>
      </trkpt>
      <trkpt lat="59.44479181431234" lon="18.667917754501104">
        <ele>16.02</ele>
      </trkpt>
      <trkpt lat="59.444875717163086" lon="18.667938709259033">
        <ele>16.21</ele>
      </trkpt>
      <trkpt lat="59.44504737854004" lon="18.66780996322632">
        <ele>16.49</ele>
      </trkpt>
      <trkpt lat="59.44520856253803" lon="18.66776696406305">
        <ele>16.66</ele>
      </trkpt>
      <trkpt lat="59.445369243621826" lon="18.667724132537842">
        <ele>16.73</ele>
      </trkpt>
      <trkpt lat="59.4455623626709" lon="18.667402267456055">
        <ele>16.88</ele>
      </trkpt>
      <trkpt lat="59.44579839706421" lon="18.667445182800293">
        <ele>16.65</ele>
      </trkpt>
      <trkpt lat="59.445884227752686" lon="18.66753101348877">
        <ele>16.51</ele>
      </trkpt>
      <trkpt lat="59.445927143096924" lon="18.66750955581665">
        <ele>16.45</ele>
      </trkpt>
      <trkpt lat="59.4460129737854" lon="18.667144775390625">
        <ele>16.52</ele>
      </trkpt>
      <trkpt lat="59.446141719818115" lon="18.6667799949646">
        <ele>16.57</ele>
      </trkpt>
      <trkpt lat="59.44624900817871" lon="18.666694164276123">
        <ele>16.45</ele>
      </trkpt>
      <trkpt lat="59.446420669555664" lon="18.666651248931885">
        <ele>16.23</ele>
      </trkpt>
      <trkpt lat="59.44664631038904" lon="18.666629707440734">
        <ele>15.98</ele>
      </trkpt>
      <trkpt lat="59.446871280670166" lon="18.666608333587646">
        <ele>15.88</ele>
      </trkpt>
      <trkpt lat="59.44697856903076" lon="18.66650104522705">
        <ele>15.79</ele>
      </trkpt>
      <trkpt lat="59.44697865284979" lon="18.66650104522705">
        <ele>15.59</ele>
      </trkpt>
      <trkpt lat="59.44697856903076" lon="18.66650104522705">
        <ele>15.79</ele>
      </trkpt>
      <trkpt lat="59.44721510633826" lon="18.66684503853321">
        <ele>15.05</ele>
      </trkpt>
      <trkpt lat="59.44745164364576" lon="18.667189115658402">
        <ele>14.76</ele>
      </trkpt>
      <trkpt lat="59.44768667221069" lon="18.66753101348877">
        <ele>14.48</ele>
      </trkpt>
      <trkpt lat="59.447837211191654" lon="18.667961340397596">
        <ele>14.24</ele>
      </trkpt>
      <trkpt lat="59.44798783399165" lon="18.668391667306423">
        <ele>14.07</ele>
      </trkpt>
      <trkpt lat="59.448137283325195" lon="18.668818473815918">
        <ele>13.88</ele>
      </trkpt>
      <trkpt lat="59.44825563579798" lon="18.6693565081805">
        <ele>13.6</ele>
      </trkpt>
      <trkpt lat="59.448373317718506" lon="18.669891357421875">
        <ele>13.35</ele>
      </trkpt>
      <trkpt lat="59.448416316881776" lon="18.67040080949664">
        <ele>13.2</ele>
      </trkpt>
      <trkpt lat="59.44845939986408" lon="18.67091034539044">
        <ele>13.15</ele>
      </trkpt>
      <trkpt lat="59.44850206375122" lon="18.671414852142334">
        <ele>13.19</ele>
      </trkpt>
      <trkpt lat="59.44856953807175" lon="18.6717620305717">
        <ele>13.16</ele>
      </trkpt>
      <trkpt lat="59.448636677116156" lon="18.672107197344303">
        <ele>13.13</ele>
      </trkpt>
      <trkpt lat="59.448652267456055" lon="18.672187328338623">
        <ele>13.07</ele>
      </trkpt>
      <trkpt lat="59.44878101348877" lon="18.67248773574829">
        <ele>13.06</ele>
      </trkpt>
      <trkpt lat="59.44892073981464" lon="18.67273500189185">
        <ele>13.0</ele>
      </trkpt>
      <trkpt lat="59.44905996322632" lon="18.67298126220703">
        <ele>12.88</ele>
      </trkpt>
      <trkpt lat="59.44924629293382" lon="18.67317471653223">
        <ele>12.75</ele>
      </trkpt>
      <trkpt lat="59.449432622641325" lon="18.67336825467646">
        <ele>12.59</ele>
      </trkpt>
      <trkpt lat="59.449617862701416" lon="18.673560619354248">
        <ele>12.48</ele>
      </trkpt>
      <trkpt lat="59.44974660873413" lon="18.67375373840332">
        <ele>12.32</ele>
      </trkpt>
      <trkpt lat="59.44983243942261" lon="18.67405414581299">
        <ele>12.12</ele>
      </trkpt>
      <trkpt lat="59.4499397277832" lon="18.67452621459961">
        <ele>11.96</ele>
      </trkpt>
      <trkpt lat="59.45000862702727" lon="18.675081599503756">
        <ele>11.9</ele>
      </trkpt>
      <trkpt lat="59.45007752627134" lon="18.6756369844079">
        <ele>12.03</ele>
      </trkpt>
      <trkpt lat="59.45014642551541" lon="18.676192369312048">
        <ele>12.17</ele>
      </trkpt>
      <trkpt lat="59.45021532475948" lon="18.676747754216194">
        <ele>12.2</ele>
      </trkpt>
      <trkpt lat="59.45028313435614" lon="18.67729425430298">
        <ele>12.26</ele>
      </trkpt>
      <trkpt lat="59.45033686235547" lon="18.67782164365053">
        <ele>12.22</ele>
      </trkpt>
      <trkpt lat="59.450390338897705" lon="18.678345680236816">
        <ele>12.15</ele>
      </trkpt>
      <trkpt lat="59.450390338897705" lon="18.678817749023438">
        <ele>12.23</ele>
      </trkpt>
      <trkpt lat="59.450390338897705" lon="18.67901086807251">
        <ele>12.46</ele>
      </trkpt>
      <trkpt lat="59.450390338897705" lon="18.67924690246582">
        <ele>12.81</ele>
      </trkpt>
      <trkpt lat="59.45033644326031" lon="18.67959131486714">
        <ele>13.33</ele>
      </trkpt>
      <trkpt lat="59.45028305053711" lon="18.679933547973633">
        <ele>13.92</ele>
      </trkpt>
      <trkpt lat="59.45017542690039" lon="18.680396229028702">
        <ele>14.66</ele>
      </trkpt>
      <trkpt lat="59.45006847381592" lon="18.680856227874756">
        <ele>15.48</ele>
      </trkpt>
      <trkpt lat="59.449923215433955" lon="18.681345731019974">
        <ele>16.4</ele>
      </trkpt>
      <trkpt lat="59.44977795705199" lon="18.681835317984223">
        <ele>17.14</ele>
      </trkpt>
      <trkpt lat="59.44963269867003" lon="18.682324904948473">
        <ele>17.77</ele>
      </trkpt>
      <trkpt lat="59.4494891166687" lon="18.682808876037598">
        <ele>18.44</ele>
      </trkpt>
      <trkpt lat="59.44938149303198" lon="18.68330391123891">
        <ele>19.08</ele>
      </trkpt>
      <trkpt lat="59.44927453994751" lon="18.683795928955078">
        <ele>19.69</ele>
      </trkpt>
      <trkpt lat="59.449195079505444" lon="18.68432524614036">
        <ele>20.23</ele>
      </trkpt>
      <trkpt lat="59.44911570288241" lon="18.684854563325644">
        <ele>20.73</ele>
      </trkpt>
      <trkpt lat="59.44903708063066" lon="18.685378935188055">
        <ele>21.31</ele>
      </trkpt>
      <trkpt lat="59.4489623978734" lon="18.685876401141286">
        <ele>21.85</ele>
      </trkpt>
      <trkpt lat="59.448888301849365" lon="18.686370849609375">
        <ele>22.4</ele>
      </trkpt>
      <trkpt lat="59.44878101348877" lon="18.686563968658447">
        <ele>22.86</ele>
      </trkpt>
      <trkpt lat="59.44873809814453" lon="18.687121868133545">
        <ele>23.25</ele>
      </trkpt>
      <trkpt lat="59.44875955581665" lon="18.687434010207653">
        <ele>23.51</ele>
      </trkpt>
      <trkpt lat="59.44878101348877" lon="18.687744140625">
        <ele>23.64</ele>
      </trkpt>
      <trkpt lat="59.44883482530713" lon="18.688045470044017">
        <ele>23.75</ele>
      </trkpt>
      <trkpt lat="59.448888301849365" lon="18.688344955444336">
        <ele>23.75</ele>
      </trkpt>
      <trkpt lat="59.448931301012635" lon="18.688689367845654">
        <ele>23.82</ele>
      </trkpt>
      <trkpt lat="59.44897413253784" lon="18.68903160095215">
        <ele>23.87</ele>
      </trkpt>
      <trkpt lat="59.4489312171936" lon="18.689439296722412">
        <ele>23.9</ele>
      </trkpt>
      <trkpt lat="59.448814960196614" lon="18.689503837376833">
        <ele>23.81</ele>
      </trkpt>
      <trkpt lat="59.44873809814453" lon="18.689546585083008">
        <ele>23.61</ele>
      </trkpt>
      <trkpt lat="59.448451437056065" lon="18.68977583013475">
        <ele>23.32</ele>
      </trkpt>
      <trkpt lat="59.44816485978663" lon="18.690005159005523">
        <ele>22.85</ele>
      </trkpt>
      <trkpt lat="59.4478798750788" lon="18.69023323059082">
        <ele>22.28</ele>
      </trkpt>
      <trkpt lat="59.447697065770626" lon="18.69038368575275">
        <ele>21.7</ele>
      </trkpt>
      <trkpt lat="59.44751501083374" lon="18.69053363800049">
        <ele>21.0</ele>
      </trkpt>
      <trkpt lat="59.44753646850586" lon="18.690878050401807">
        <ele>20.35</ele>
      </trkpt>
      <trkpt lat="59.44755792617798" lon="18.6912202835083">
        <ele>19.75</ele>
      </trkpt>
      <trkpt lat="59.447450302541256" lon="18.69164532981813">
        <ele>19.09</ele>
      </trkpt>
      <trkpt lat="59.44734267890453" lon="18.69207037612796">
        <ele>18.38</ele>
      </trkpt>
      <trkpt lat="59.44723505526781" lon="18.692495422437787">
        <ele>17.57</ele>
      </trkpt>
      <trkpt lat="59.447128772735596" lon="18.692915439605713">
        <ele>16.76</ele>
      </trkpt>
      <trkpt lat="59.447118043899536" lon="18.693389017134905">
        <ele>16.08</ele>
      </trkpt>
      <trkpt lat="59.44710739888251" lon="18.693859577178955">
        <ele>15.4</ele>
      </trkpt>
      <trkpt lat="59.44704294204712" lon="18.694095611572266">
        <ele>14.77</ele>
      </trkpt>
      <trkpt lat="59.44706439971924" lon="18.694417476654053">
        <ele>14.18</ele>
      </trkpt>
      <trkpt lat="59.44704302586615" lon="18.694546222686768">
        <ele>13.66</ele>
      </trkpt>
      <trkpt lat="59.44704294204712" lon="18.694546222686768">
        <ele>13.27</ele>
      </trkpt>
      <trkpt lat="59.446881506592035" lon="18.694944195449352">
        <ele>12.88</ele>
      </trkpt>
      <trkpt lat="59.44672107696533" lon="18.695340156555176">
        <ele>12.58</ele>
      </trkpt>
      <trkpt lat="59.44650650024414" lon="18.695662021636963">
        <ele>12.42</ele>
      </trkpt>
      <trkpt lat="59.44635629653931" lon="18.69596242904663">
        <ele>12.29</ele>
      </trkpt>
      <trkpt lat="59.44650650024414" lon="18.695662021636963">
        <ele>12.42</ele>
      </trkpt>
      <trkpt lat="59.44672107696533" lon="18.695340156555176">
        <ele>12.58</ele>
      </trkpt>
      <trkpt lat="59.446882428601384" lon="18.69494209997356">
        <ele>13.09</ele>
      </trkpt>
      <trkpt lat="59.44704294204712" lon="18.694546222686768">
        <ele>13.27</ele>
      </trkpt>
      <trkpt lat="59.44704302586615" lon="18.694546222686768">
        <ele>13.66</ele>
      </trkpt>
      <trkpt lat="59.44706439971924" lon="18.694417476654053">
        <ele>14.18</ele>
      </trkpt>
      <trkpt lat="59.44704294204712" lon="18.694095611572266">
        <ele>14.77</ele>
      </trkpt>
      <trkpt lat="59.44710739888251" lon="18.693859577178955">
        <ele>15.4</ele>
      </trkpt>
      <trkpt lat="59.447118043899536" lon="18.69338591583073">
        <ele>16.41</ele>
      </trkpt>
      <trkpt lat="59.447128772735596" lon="18.692915439605713">
        <ele>16.76</ele>
      </trkpt>
      <trkpt lat="59.44723631255329" lon="18.692490309476852">
        <ele>17.77</ele>
      </trkpt>
      <trkpt lat="59.44734393619001" lon="18.692065263167024">
        <ele>18.48</ele>
      </trkpt>
      <trkpt lat="59.44745155982673" lon="18.691640216857195">
        <ele>19.07</ele>
      </trkpt>
      <trkpt lat="59.44755792617798" lon="18.6912202835083">
        <ele>19.75</ele>
      </trkpt>
      <trkpt lat="59.44753638468683" lon="18.69087578728795">
        <ele>19.99</ele>
      </trkpt>
      <trkpt lat="59.44751509465277" lon="18.69053363800049">
        <ele>20.41</ele>
      </trkpt>
      <trkpt lat="59.44769782014191" lon="18.690383099019527">
        <ele>20.88</ele>
      </trkpt>
      <trkpt lat="59.4478798750788" lon="18.69023323059082">
        <ele>22.28</ele>
      </trkpt>
      <trkpt lat="59.44816645234823" lon="18.690003901720047">
        <ele>21.47</ele>
      </trkpt>
      <trkpt lat="59.44845302961767" lon="18.689774572849274">
        <ele>21.63</ele>
      </trkpt>
      <trkpt lat="59.44873809814453" lon="18.689546585083008">
        <ele>23.61</ele>
      </trkpt>
      <trkpt lat="59.4489312171936" lon="18.689439296722412">
        <ele>23.9</ele>
      </trkpt>
      <trkpt lat="59.44917839951813" lon="18.689310299232602">
        <ele>21.12</ele>
      </trkpt>
      <trkpt lat="59.449424743652344" lon="18.689181804656982">
        <ele>20.68</ele>
      </trkpt>
      <trkpt lat="59.44968223571777" lon="18.68924617767334">
        <ele>20.3</ele>
      </trkpt>
      <trkpt lat="59.44985414855182" lon="18.68911718018353">
        <ele>19.97</ele>
      </trkpt>
      <trkpt lat="59.45002555847168" lon="18.68898868560791">
        <ele>19.66</ele>
      </trkpt>
      <trkpt lat="59.45008314214647" lon="18.688916685059667">
        <ele>19.37</ele>
      </trkpt>
      <trkpt lat="59.45011147297919" lon="18.688881397247314">
        <ele>19.08</ele>
      </trkpt>
      <trkpt lat="59.450269136577845" lon="18.68915380910039">
        <ele>18.82</ele>
      </trkpt>
      <trkpt lat="59.45042688399553" lon="18.689426220953465">
        <ele>18.59</ele>
      </trkpt>
      <trkpt lat="59.45058354176581" lon="18.689696788787842">
        <ele>18.32</ele>
      </trkpt>
      <trkpt lat="59.45058345794678" lon="18.689696788787842">
        <ele>17.99</ele>
      </trkpt>
      <trkpt lat="59.45071220397949" lon="18.68995428085327">
        <ele>17.72</ele>
      </trkpt>
      <trkpt lat="59.450852097943425" lon="18.690330795943737">
        <ele>17.4</ele>
      </trkpt>
      <trkpt lat="59.45099123753607" lon="18.69070529937744">
        <ele>17.02</ele>
      </trkpt>
      <trkpt lat="59.45112744346261" lon="18.691092543303967">
        <ele>16.61</ele>
      </trkpt>
      <trkpt lat="59.45126364938915" lon="18.691479871049523">
        <ele>16.18</ele>
      </trkpt>
      <trkpt lat="59.451398849487305" lon="18.691864013671875">
        <ele>15.64</ele>
      </trkpt>
      <trkpt lat="59.45148468017578" lon="18.69227170944214">
        <ele>15.1</ele>
      </trkpt>
      <trkpt lat="59.45158149115741" lon="18.69285282678902">
        <ele>14.54</ele>
      </trkpt>
      <trkpt lat="59.45167779922485" lon="18.693430423736572">
        <ele>14.05</ele>
      </trkpt>
      <trkpt lat="59.451758516952395" lon="18.694011624902487">
        <ele>13.6</ele>
      </trkpt>
      <trkpt lat="59.45183923467994" lon="18.6945928260684">
        <ele>13.14</ele>
      </trkpt>
      <trkpt lat="59.45191995240748" lon="18.695174027234316">
        <ele>12.78</ele>
      </trkpt>
      <trkpt lat="59.45199966430664" lon="18.69574785232544">
        <ele>12.46</ele>
      </trkpt>
      <trkpt lat="59.452053476125" lon="18.69629317894578">
        <ele>12.12</ele>
      </trkpt>
      <trkpt lat="59.45210728794336" lon="18.69683850556612">
        <ele>11.85</ele>
      </trkpt>
      <trkpt lat="59.452161099761724" lon="18.697383916005492">
        <ele>11.74</ele>
      </trkpt>
      <trkpt lat="59.452214911580086" lon="18.697929242625833">
        <ele>11.76</ele>
      </trkpt>
      <trkpt lat="59.45226872339845" lon="18.698474653065205">
        <ele>11.95</ele>
      </trkpt>
      <trkpt lat="59.45232152938843" lon="18.69900941848755">
        <ele>12.25</ele>
      </trkpt>
      <trkpt lat="59.452407611534" lon="18.69943270459771">
        <ele>12.68</ele>
      </trkpt>
      <trkpt lat="59.45249369367957" lon="18.699855990707874">
        <ele>13.19</ele>
      </trkpt>
      <trkpt lat="59.45257902145386" lon="18.700275421142578">
        <ele>13.7</ele>
      </trkpt>
      <trkpt lat="59.45275068283081" lon="18.700640201568604">
        <ele>14.26</ele>
      </trkpt>
      <trkpt lat="59.452900886535645" lon="18.700876235961914">
        <ele>14.8</ele>
      </trkpt>
      <trkpt lat="59.453041199594736" lon="18.70100799947977">
        <ele>15.35</ele>
      </trkpt>
      <trkpt lat="59.453230798244476" lon="18.701186114922166">
        <ele>15.92</ele>
      </trkpt>
      <trkpt lat="59.45342039689422" lon="18.70136423036456">
        <ele>16.61</ele>
      </trkpt>
      <trkpt lat="59.453608989715576" lon="18.701541423797607">
        <ele>17.32</ele>
      </trkpt>
      <trkpt lat="59.453673446550965" lon="18.70169162750244">
        <ele>17.92</ele>
      </trkpt>
      <trkpt lat="59.45382356643677" lon="18.70199203491211">
        <ele>18.6</ele>
      </trkpt>
      <trkpt lat="59.45395231246948" lon="18.702378273010254">
        <ele>19.27</ele>
      </trkpt>
      <trkpt lat="59.45401668548584" lon="18.702893257141113">
        <ele>19.93</ele>
      </trkpt>
      <trkpt lat="59.45401668548584" lon="18.703226940706372">
        <ele>20.35</ele>
      </trkpt>
      <trkpt lat="59.45401668548584" lon="18.703558444976807">
        <ele>20.71</ele>
      </trkpt>
      <trkpt lat="59.45397360250354" lon="18.703981814906">
        <ele>20.95</ele>
      </trkpt>
      <trkpt lat="59.453930519521236" lon="18.704405184835196">
        <ele>21.07</ele>
      </trkpt>
      <trkpt lat="59.453887939453125" lon="18.704824447631836">
        <ele>21.05</ele>
      </trkpt>
      <trkpt lat="59.453877210617065" lon="18.705211943015456">
        <ele>20.93</ele>
      </trkpt>
      <trkpt lat="59.45386656560004" lon="18.705596923828125">
        <ele>20.77</ele>
      </trkpt>
      <trkpt lat="59.453981313854456" lon="18.706070333719254">
        <ele>20.52</ele>
      </trkpt>
      <trkpt lat="59.454096062108874" lon="18.706543827429414">
        <ele>20.29</ele>
      </trkpt>
      <trkpt lat="59.454209888353944" lon="18.70701313018799">
        <ele>20.17</ele>
      </trkpt>
      <trkpt lat="59.45424207486212" lon="18.707368271425366">
        <ele>20.07</ele>
      </trkpt>
      <trkpt lat="59.45427417755127" lon="18.70772123336792">
        <ele>19.99</ele>
      </trkpt>
      <trkpt lat="59.45424827747047" lon="18.708233619108796">
        <ele>19.99</ele>
      </trkpt>
      <trkpt lat="59.4542224612087" lon="18.708746004849672">
        <ele>20.01</ele>
      </trkpt>
      <trkpt lat="59.45419664494693" lon="18.70925839059055">
        <ele>19.84</ele>
      </trkpt>
      <trkpt lat="59.454170828685164" lon="18.709770776331425">
        <ele>19.51</ele>
      </trkpt>
      <trkpt lat="59.454145431518555" lon="18.710274696350098">
        <ele>19.11</ele>
      </trkpt>
      <trkpt lat="59.454188430681825" lon="18.71073754504323">
        <ele>18.65</ele>
      </trkpt>
      <trkpt lat="59.45423126220703" lon="18.71119737625122">
        <ele>18.07</ele>
      </trkpt>
      <trkpt lat="59.45419220253825" lon="18.711788719519973">
        <ele>17.46</ele>
      </trkpt>
      <trkpt lat="59.45415314286947" lon="18.712380062788725">
        <ele>16.72</ele>
      </trkpt>
      <trkpt lat="59.45411450229585" lon="18.71296562254429">
        <ele>15.93</ele>
      </trkpt>
      <trkpt lat="59.45411450229585" lon="18.71296570636332">
        <ele>15.23</ele>
      </trkpt>
      <trkpt lat="59.4540810585022" lon="18.71347188949585">
        <ele>14.28</ele>
      </trkpt>
      <trkpt lat="59.45409178733826" lon="18.71382711455226">
        <ele>13.42</ele>
      </trkpt>
      <trkpt lat="59.45410259999335" lon="18.71417999267578">
        <ele>12.65</ele>
      </trkpt>
      <trkpt lat="59.454102516174316" lon="18.71417999267578">
        <ele>12.05</ele>
      </trkpt>
      <trkpt lat="59.45408524945378" lon="18.71474828571081">
        <ele>11.42</ele>
      </trkpt>
      <trkpt lat="59.45406806655228" lon="18.715316662564874">
        <ele>10.98</ele>
      </trkpt>
      <trkpt lat="59.45405079983175" lon="18.715885039418936">
        <ele>10.67</ele>
      </trkpt>
      <trkpt lat="59.454033616930246" lon="18.716453416272998">
        <ele>10.37</ele>
      </trkpt>
      <trkpt lat="59.45401668548584" lon="18.717012405395508">
        <ele>10.2</ele>
      </trkpt>
      <trkpt lat="59.45396639406681" lon="18.717450108379126">
        <ele>10.21</ele>
      </trkpt>
      <trkpt lat="59.45391618646681" lon="18.717887811362743">
        <ele>10.25</ele>
      </trkpt>
      <trkpt lat="59.453866481781006" lon="18.718321323394775">
        <ele>10.43</ele>
      </trkpt>
      <trkpt lat="59.45374452508986" lon="18.71880194172263">
        <ele>10.6</ele>
      </trkpt>
      <trkpt lat="59.453622568398714" lon="18.719282560050488">
        <ele>10.88</ele>
      </trkpt>
      <trkpt lat="59.45350170135498" lon="18.719758987426758">
        <ele>11.39</ele>
      </trkpt>
      <trkpt lat="59.45346063002944" lon="18.720062412321568">
        <ele>11.94</ele>
      </trkpt>
      <trkpt lat="59.45341997779906" lon="18.720363909378648">
        <ele>12.55</ele>
      </trkpt>
      <trkpt lat="59.453394412994385" lon="18.720552921295166">
        <ele>13.18</ele>
      </trkpt>
      <trkpt lat="59.453372871503234" lon="18.721076790243387">
        <ele>13.86</ele>
      </trkpt>
      <trkpt lat="59.45335133001208" lon="18.72160065919161">
        <ele>14.61</ele>
      </trkpt>
      <trkpt lat="59.45333003997803" lon="18.722119331359863">
        <ele>15.32</ele>
      </trkpt>
      <trkpt lat="59.453415870666504" lon="18.72267723083496">
        <ele>15.87</ele>
      </trkpt>
      <trkpt lat="59.45353774353862" lon="18.72301426716149">
        <ele>16.44</ele>
      </trkpt>
      <trkpt lat="59.453659700229764" lon="18.723351387307048">
        <ele>17.03</ele>
      </trkpt>
      <trkpt lat="59.45378073491156" lon="18.72368574142456">
        <ele>17.6</ele>
      </trkpt>
      <trkpt lat="59.45395281538367" lon="18.72413031756878">
        <ele>17.97</ele>
      </trkpt>
      <trkpt lat="59.454124895855784" lon="18.72457497753203">
        <ele>18.26</ele>
      </trkpt>
      <trkpt lat="59.45429563522339" lon="18.725016117095947">
        <ele>18.53</ele>
      </trkpt>
      <trkpt lat="59.45433855056763" lon="18.725316524505615">
        <ele>18.7</ele>
      </trkpt>
      <trkpt lat="59.45425271987915" lon="18.725788593292236">
        <ele>18.64</ele>
      </trkpt>
      <trkpt lat="59.45413428358734" lon="18.726294357329607">
        <ele>18.53</ele>
      </trkpt>
      <trkpt lat="59.45401668548584" lon="18.726797103881836">
        <ele>18.48</ele>
      </trkpt>
      <trkpt lat="59.45390906184912" lon="18.72708753682673">
        <ele>18.23</ele>
      </trkpt>
      <trkpt lat="59.45380210876465" lon="18.727376461029053">
        <ele>18.02</ele>
      </trkpt>
      <trkpt lat="59.453769754618406" lon="18.72768860310316">
        <ele>17.73</ele>
      </trkpt>
      <trkpt lat="59.45373773574829" lon="18.727998733520508">
        <ele>17.38</ele>
      </trkpt>
      <trkpt lat="59.45375919342041" lon="18.728578090667725">
        <ele>16.85</ele>
      </trkpt>
      <trkpt lat="59.45380219258368" lon="18.729040939360857">
        <ele>16.5</ele>
      </trkpt>
      <trkpt lat="59.45384502410889" lon="18.729500770568848">
        <ele>16.18</ele>
      </trkpt>
      <trkpt lat="59.45393085479736" lon="18.729887008666992">
        <ele>15.9</ele>
      </trkpt>
      <trkpt lat="59.4541135802865" lon="18.73012346215546">
        <ele>15.67</ele>
      </trkpt>
      <trkpt lat="59.45429563522339" lon="18.730359077453613">
        <ele>15.45</ele>
      </trkpt>
      <trkpt lat="59.45444583892822" lon="18.730831146240234">
        <ele>15.19</ele>
      </trkpt>
      <trkpt lat="59.45448883809149" lon="18.73113247565925">
        <ele>14.85</ele>
      </trkpt>
      <trkpt lat="59.4545316696167" lon="18.73143196105957">
        <ele>14.49</ele>
      </trkpt>
      <trkpt lat="59.45462848059833" lon="18.731690123677254">
        <ele>14.07</ele>
      </trkpt>
      <trkpt lat="59.45472478866577" lon="18.73194694519043">
        <ele>13.59</ele>
      </trkpt>
      <trkpt lat="59.45485386997461" lon="18.73244189657271">
        <ele>13.07</ele>
      </trkpt>
      <trkpt lat="59.45498303510249" lon="18.73293684795499">
        <ele>12.59</ele>
      </trkpt>
      <trkpt lat="59.455111026763916" lon="18.73342752456665">
        <ele>12.2</ele>
      </trkpt>
      <trkpt lat="59.45521144196391" lon="18.73380772769451">
        <ele>12.0</ele>
      </trkpt>
      <trkpt lat="59.455311857163906" lon="18.734187930822372">
        <ele>11.8</ele>
      </trkpt>
      <trkpt lat="59.455411434173584" lon="18.734564781188965">
        <ele>11.71</ele>
      </trkpt>
      <trkpt lat="59.455561973154545" lon="18.73491975478828">
        <ele>11.67</ele>
      </trkpt>
      <trkpt lat="59.45571184158325" lon="18.735272884368896">
        <ele>11.71</ele>
      </trkpt>
      <trkpt lat="59.45579767227173" lon="18.735594749450684">
        <ele>11.8</ele>
      </trkpt>
      <trkpt lat="59.45582994259894" lon="18.736111409962177">
        <ele>12.05</ele>
      </trkpt>
      <trkpt lat="59.455862045288086" lon="18.736624717712402">
        <ele>12.19</ele>
      </trkpt>
      <trkpt lat="59.455976793542504" lon="18.73711966909468">
        <ele>12.36</ele>
      </trkpt>
      <trkpt lat="59.45609154179692" lon="18.737614704295993">
        <ele>12.41</ele>
      </trkpt>
      <trkpt lat="59.45620536804199" lon="18.738105297088623">
        <ele>12.46</ele>
      </trkpt>
      <trkpt lat="59.45620536804199" lon="18.73847007751465">
        <ele>12.47</ele>
      </trkpt>
      <trkpt lat="59.456054745242" lon="18.738803509622812">
        <ele>12.37</ele>
      </trkpt>
      <trkpt lat="59.455904960632324" lon="18.739135265350342">
        <ele>12.27</ele>
      </trkpt>
      <trkpt lat="59.45575475692749" lon="18.739306926727295">
        <ele>12.14</ele>
      </trkpt>
      <trkpt lat="59.455626010894775" lon="18.739371299743652">
        <ele>12.06</ele>
      </trkpt>
      <trkpt lat="59.45551872253418" lon="18.73971462249756">
        <ele>11.92</ele>
      </trkpt>
      <trkpt lat="59.455626010894775" lon="18.739371299743652">
        <ele>12.06</ele>
      </trkpt>
      <trkpt lat="59.45575475692749" lon="18.739306926727295">
        <ele>12.14</ele>
      </trkpt>
      <trkpt lat="59.455904960632324" lon="18.739135265350342">
        <ele>12.27</ele>
      </trkpt>
      <trkpt lat="59.456055499613285" lon="18.738801749423146">
        <ele>12.54</ele>
      </trkpt>
      <trkpt lat="59.45620536804199" lon="18.73847007751465">
        <ele>12.47</ele>
      </trkpt>
      <trkpt lat="59.45620536804199" lon="18.738105297088623">
        <ele>12.46</ele>
      </trkpt>
      <trkpt lat="59.45609053596854" lon="18.737610261887312">
        <ele>12.49</ele>
      </trkpt>
      <trkpt lat="59.455975787714124" lon="18.737115226686">
        <ele>12.34</ele>
      </trkpt>
      <trkpt lat="59.455862045288086" lon="18.736624717712402">
        <ele>12.19</ele>
      </trkpt>
      <trkpt lat="59.455829691141844" lon="18.736107973381877">
        <ele>11.72</ele>
      </trkpt>
      <trkpt lat="59.45579767227173" lon="18.735594749450684">
        <ele>11.8</ele>
      </trkpt>
      <trkpt lat="59.45571184158325" lon="18.735272884368896">
        <ele>11.71</ele>
      </trkpt>
      <trkpt lat="59.45556121878326" lon="18.73491782695055">
        <ele>10.54</ele>
      </trkpt>
      <trkpt lat="59.455411434173584" lon="18.734564781188965">
        <ele>11.71</ele>
      </trkpt>
      <trkpt lat="59.45531093515456" lon="18.734184494242072">
        <ele>9.93</ele>
      </trkpt>
      <trkpt lat="59.45521051995456" lon="18.73380429111421">
        <ele>9.7</ele>
      </trkpt>
      <trkpt lat="59.455111026763916" lon="18.73342752456665">
        <ele>12.2</ele>
      </trkpt>
      <trkpt lat="59.45529383607209" lon="18.733051009476185">
        <ele>9.33</ele>
      </trkpt>
      <trkpt lat="59.45547580718994" lon="18.73267650604248">
        <ele>9.19</ele>
      </trkpt>
      <trkpt lat="59.45573329925537" lon="18.732590675354004">
        <ele>9.05</ele>
      </trkpt>
      <trkpt lat="59.455910827964544" lon="18.732657227665186">
        <ele>8.97</ele>
      </trkpt>
      <trkpt lat="59.45608785375953" lon="18.732723612338305">
        <ele>8.97</ele>
      </trkpt>
      <trkpt lat="59.45624828338623" lon="18.732783794403076">
        <ele>8.98</ele>
      </trkpt>
      <trkpt lat="59.456398487091064" lon="18.732783794403076">
        <ele>9.04</ele>
      </trkpt>
      <trkpt lat="59.45660627447069" lon="18.73251859098673">
        <ele>9.18</ele>
      </trkpt>
      <trkpt lat="59.45681414566934" lon="18.73225338757038">
        <ele>9.31</ele>
      </trkpt>
      <trkpt lat="59.45702075958252" lon="18.731989860534668">
        <ele>9.53</ele>
      </trkpt>
      <trkpt lat="59.45722854696214" lon="18.73185365460813">
        <ele>9.71</ele>
      </trkpt>
      <trkpt lat="59.457436334341764" lon="18.731717532500625">
        <ele>10.06</ele>
      </trkpt>
      <trkpt lat="59.457643032073975" lon="18.731582164764404">
        <ele>10.56</ele>
      </trkpt>
      <trkpt lat="59.457879066467285" lon="18.73171091079712">
        <ele>11.12</ele>
      </trkpt>
      <trkpt lat="59.45794343948364" lon="18.73143196105957">
        <ele>11.83</ele>
      </trkpt>
      <trkpt lat="59.457957772538066" lon="18.730922425165772">
        <ele>12.57</ele>
      </trkpt>
      <trkpt lat="59.45797210559249" lon="18.730412889271975">
        <ele>13.3</ele>
      </trkpt>
      <trkpt lat="59.45798635482788" lon="18.72990846633911">
        <ele>14.02</ele>
      </trkpt>
      <trkpt lat="59.45792198181152" lon="18.729565143585205">
        <ele>14.61</ele>
      </trkpt>
      <trkpt lat="59.45778208784759" lon="18.729188544675708">
        <ele>15.11</ele>
      </trkpt>
      <trkpt lat="59.457643032073975" lon="18.728814125061035">
        <ele>15.69</ele>
      </trkpt>
      <trkpt lat="59.45758913643658" lon="18.728501982986927">
        <ele>16.15</ele>
      </trkpt>
      <trkpt lat="59.45753574371338" lon="18.72819185256958">
        <ele>16.56</ele>
      </trkpt>
      <trkpt lat="59.457621574401855" lon="18.7276554107666">
        <ele>16.84</ele>
      </trkpt>
      <trkpt lat="59.45777177810669" lon="18.727312088012695">
        <ele>16.96</ele>
      </trkpt>
      <trkpt lat="59.457972357049584" lon="18.72715442441404">
        <ele>17.08</ele>
      </trkpt>
      <trkpt lat="59.45817301981151" lon="18.726996760815382">
        <ele>17.11</ele>
      </trkpt>
      <trkpt lat="59.458372592926025" lon="18.726840019226074">
        <ele>17.0</ele>
      </trkpt>
      <trkpt lat="59.45847988128662" lon="18.726389408111572">
        <ele>16.73</ele>
      </trkpt>
      <trkpt lat="59.458608627319336" lon="18.72617483139038">
        <ele>16.61</ele>
      </trkpt>
      <trkpt lat="59.458780540153384" lon="18.72604583390057">
        <ele>16.44</ele>
      </trkpt>
      <trkpt lat="59.45895195007324" lon="18.72591733932495">
        <ele>16.34</ele>
      </trkpt>
      <trkpt lat="59.45880174636841" lon="18.72568130493164">
        <ele>16.37</ele>
      </trkpt>
      <trkpt lat="59.45864047855139" lon="18.72554149478674">
        <ele>16.41</ele>
      </trkpt>
      <trkpt lat="59.45847988128662" lon="18.725402355194092">
        <ele>16.36</ele>
      </trkpt>
      <trkpt lat="59.45829715579748" lon="18.72538081370294">
        <ele>16.26</ele>
      </trkpt>
      <trkpt lat="59.458115100860596" lon="18.725359439849854">
        <ele>16.17</ele>
      </trkpt>
      <trkpt lat="59.458042765036225" lon="18.725272687152028">
        <ele>16.14</ele>
      </trkpt>
      <trkpt lat="59.4580078125" lon="18.72523069381714">
        <ele>16.13</ele>
      </trkpt>
      <trkpt lat="59.45782852359116" lon="18.724879324436188">
        <ele>16.14</ele>
      </trkpt>
      <trkpt lat="59.45764923468232" lon="18.724527955055237">
        <ele>16.12</ele>
      </trkpt>
      <trkpt lat="59.45747137069702" lon="18.7241792678833">
        <ele>16.14</ele>
      </trkpt>
      <trkpt lat="59.45741747505963" lon="18.723867125809193">
        <ele>16.28</ele>
      </trkpt>
      <trkpt lat="59.457364082336426" lon="18.723556995391846">
        <ele>16.43</ele>
      </trkpt>
      <trkpt lat="59.45734262466431" lon="18.723020553588867">
        <ele>16.59</ele>
      </trkpt>
      <trkpt lat="59.45742845535278" lon="18.72244119644165">
        <ele>16.67</ele>
      </trkpt>
      <trkpt lat="59.4574499130249" lon="18.72207515873015">
        <ele>16.69</ele>
      </trkpt>
      <trkpt lat="59.45747137069702" lon="18.7217116355896">
        <ele>16.6</ele>
      </trkpt>
      <trkpt lat="59.45757865905762" lon="18.721261024475098">
        <ele>16.67</ele>
      </trkpt>
      <trkpt lat="59.457600116729736" lon="18.72098207473755">
        <ele>16.64</ele>
      </trkpt>
      <trkpt lat="59.45754622109234" lon="18.7206375785172">
        <ele>16.65</ele>
      </trkpt>
      <trkpt lat="59.45749282836914" lon="18.720295429229736">
        <ele>16.67</ele>
      </trkpt>
      <trkpt lat="59.45732116699219" lon="18.720080852508545">
        <ele>16.68</ele>
      </trkpt>
      <trkpt lat="59.45717096328735" lon="18.71971607208252">
        <ele>16.69</ele>
      </trkpt>
      <trkpt lat="59.45708513259888" lon="18.719158172607422">
        <ele>16.69</ele>
      </trkpt>
      <trkpt lat="59.4569993019104" lon="18.718836307525635">
        <ele>16.53</ele>
      </trkpt>
      <trkpt lat="59.45702075958252" lon="18.718535900115967">
        <ele>16.23</ele>
      </trkpt>
      <trkpt lat="59.45697784423828" lon="18.7182354927063">
        <ele>15.83</ele>
      </trkpt>
      <trkpt lat="59.456892013549805" lon="18.718106746673584">
        <ele>15.45</ele>
      </trkpt>
      <trkpt lat="59.45704221725464" lon="18.71772050857544">
        <ele>15.0</ele>
      </trkpt>
      <trkpt lat="59.4570098631084" lon="18.717236034572124">
        <ele>14.43</ele>
      </trkpt>
      <trkpt lat="59.45697784423828" lon="18.716754913330078">
        <ele>13.81</ele>
      </trkpt>
      <trkpt lat="59.456913471221924" lon="18.71617555618286">
        <ele>13.23</ele>
      </trkpt>
      <trkpt lat="59.45693492889404" lon="18.716025352478027">
        <ele>12.72</ele>
      </trkpt>
      <trkpt lat="59.45693492889404" lon="18.715660572052002">
        <ele>12.18</ele>
      </trkpt>
      <trkpt lat="59.456849098205566" lon="18.715381622314453">
        <ele>11.7</ele>
      </trkpt>
      <trkpt lat="59.45669889450073" lon="18.715145587921143">
        <ele>11.19</ele>
      </trkpt>
      <trkpt lat="59.45650577545166" lon="18.71516704559326">
        <ele>10.88</ele>
      </trkpt>
      <trkpt lat="59.456377029418945" lon="18.71499538421631">
        <ele>10.65</ele>
      </trkpt>
      <trkpt lat="59.45631265640259" lon="18.714652061462402">
        <ele>10.59</ele>
      </trkpt>
      <trkpt lat="59.45631265640259" lon="18.714544773101807">
        <ele>10.57</ele>
      </trkpt>
      <trkpt lat="59.45622690953314" lon="18.7142014503479">
        <ele>10.88</ele>
      </trkpt>
      <trkpt lat="59.45622682571411" lon="18.7142014503479">
        <ele>10.96</ele>
      </trkpt>
      <trkpt lat="59.456193717196584" lon="18.71420538984239">
        <ele>11.11</ele>
      </trkpt>
      <trkpt lat="59.456193717196584" lon="18.71420530602336">
        <ele>11.28</ele>
      </trkpt>
      <trkpt lat="59.456027587875724" lon="18.71422483585775">
        <ele>11.54</ele>
      </trkpt>
      <trkpt lat="59.455862045288086" lon="18.71424436569214">
        <ele>11.8</ele>
      </trkpt>
      <trkpt lat="59.45558259263635" lon="18.71420136652887">
        <ele>12.16</ele>
      </trkpt>
      <trkpt lat="59.45530414581299" lon="18.714158535003662">
        <ele>12.47</ele>
      </trkpt>
      <trkpt lat="59.45511069148779" lon="18.71421226300299">
        <ele>12.77</ele>
      </trkpt>
      <trkpt lat="59.454917907714844" lon="18.714265823364258">
        <ele>13.08</ele>
      </trkpt>
      <trkpt lat="59.45483207702637" lon="18.71443748474121">
        <ele>13.29</ele>
      </trkpt>
      <trkpt lat="59.45483207702637" lon="18.714523315429688">
        <ele>13.56</ele>
      </trkpt>
      <trkpt lat="59.454638957977295" lon="18.71471643447876">
        <ele>13.79</ele>
      </trkpt>
      <trkpt lat="59.454381465911865" lon="18.714609146118164">
        <ele>13.97</ele>
      </trkpt>
      <trkpt lat="59.45427417755127" lon="18.714351654052734">
        <ele>14.25</ele>
      </trkpt>
      <trkpt lat="59.45410259999335" lon="18.71417999267578">
        <ele>12.65</ele>
      </trkpt>
      <trkpt lat="59.454102516174316" lon="18.71417999267578">
        <ele>12.05</ele>
      </trkpt>
      <trkpt lat="59.45410259999335" lon="18.71417999267578">
        <ele>12.65</ele>
      </trkpt>
      <trkpt lat="59.45409178733826" lon="18.71382468380034">
        <ele>15.88</ele>
      </trkpt>
      <trkpt lat="59.4540810585022" lon="18.71347188949585">
        <ele>14.28</ele>
      </trkpt>
      <trkpt lat="59.45411869324744" lon="18.712901333346963">
        <ele>17.24</ele>
      </trkpt>
      <trkpt lat="59.45415641181171" lon="18.712330861017108">
        <ele>17.8</ele>
      </trkpt>
      <trkpt lat="59.45419404655695" lon="18.71176030486822">
        <ele>18.32</ele>
      </trkpt>
      <trkpt lat="59.45423126220703" lon="18.71119737625122">
        <ele>18.07</ele>
      </trkpt>
      <trkpt lat="59.45418817922473" lon="18.710734443739057">
        <ele>19.12</ele>
      </trkpt>
      <trkpt lat="59.454145431518555" lon="18.710274696350098">
        <ele>19.11</ele>
      </trkpt>
      <trkpt lat="59.45417124778032" lon="18.70976231060922">
        <ele>19.68</ele>
      </trkpt>
      <trkpt lat="59.45419706404209" lon="18.709249924868345">
        <ele>19.89</ele>
      </trkpt>
      <trkpt lat="59.45422288030386" lon="18.70873753912747">
        <ele>19.95</ele>
      </trkpt>
      <trkpt lat="59.45424878038466" lon="18.708225153386593">
        <ele>19.84</ele>
      </trkpt>
      <trkpt lat="59.45427417755127" lon="18.70772123336792">
        <ele>19.99</ele>
      </trkpt>
      <trkpt lat="59.45424190722406" lon="18.70736600831151">
        <ele>19.78</ele>
      </trkpt>
      <trkpt lat="59.454209888353944" lon="18.70701313018799">
        <ele>20.17</ele>
      </trkpt>
      <trkpt lat="59.454095056280494" lon="18.706539552658796">
        <ele>19.93</ele>
      </trkpt>
      <trkpt lat="59.453980308026075" lon="18.706066142767668">
        <ele>20.13</ele>
      </trkpt>
      <trkpt lat="59.45386656560004" lon="18.705596923828125">
        <ele>20.77</ele>
      </trkpt>
      <trkpt lat="59.453877210617065" lon="18.705209344625473">
        <ele>20.51</ele>
      </trkpt>
      <trkpt lat="59.453887939453125" lon="18.704824447631836">
        <ele>21.05</ele>
      </trkpt>
      <trkpt lat="59.453930938616395" lon="18.70440099388361">
        <ele>20.63</ele>
      </trkpt>
      <trkpt lat="59.4539740215987" lon="18.703977623954415">
        <ele>20.51</ele>
      </trkpt>
      <trkpt lat="59.45401668548584" lon="18.703558444976807">
        <ele>20.71</ele>
      </trkpt>
      <trkpt lat="59.45401668548584" lon="18.703224677592516">
        <ele>19.91</ele>
      </trkpt>
      <trkpt lat="59.45401668548584" lon="18.702893257141113">
        <ele>19.93</ele>
      </trkpt>
      <trkpt lat="59.45395231246948" lon="18.702378273010254">
        <ele>19.27</ele>
      </trkpt>
      <trkpt lat="59.45382356643677" lon="18.70199203491211">
        <ele>18.6</ele>
      </trkpt>
      <trkpt lat="59.453673446550965" lon="18.70169162750244">
        <ele>17.92</ele>
      </trkpt>
      <trkpt lat="59.453608989715576" lon="18.701541423797607">
        <ele>17.32</ele>
      </trkpt>
      <trkpt lat="59.453372452408075" lon="18.70131921954453">
        <ele>16.18</ele>
      </trkpt>
      <trkpt lat="59.453135998919606" lon="18.701097099110484">
        <ele>15.54</ele>
      </trkpt>
      <trkpt lat="59.452900886535645" lon="18.700876235961914">
        <ele>14.8</ele>
      </trkpt>
      <trkpt lat="59.45275068283081" lon="18.700640201568604">
        <ele>14.26</ele>
      </trkpt>
      <trkpt lat="59.45257902145386" lon="18.700275421142578">
        <ele>13.7</ele>
      </trkpt>
      <trkpt lat="59.452492855489254" lon="18.699852051213384">
        <ele>13.38</ele>
      </trkpt>
      <trkpt lat="59.45240677334368" lon="18.69942876510322">
        <ele>12.88</ele>
      </trkpt>
      <trkpt lat="59.45232152938843" lon="18.69900941848755">
        <ele>12.25</ele>
      </trkpt>
      <trkpt lat="59.452267633751035" lon="18.698464008048177">
        <ele>12.15</ele>
      </trkpt>
      <trkpt lat="59.45221382193267" lon="18.697918597608805">
        <ele>11.98</ele>
      </trkpt>
      <trkpt lat="59.45216001011431" lon="18.697373270988464">
        <ele>11.97</ele>
      </trkpt>
      <trkpt lat="59.45210619829595" lon="18.696827860549092">
        <ele>12.11</ele>
      </trkpt>
      <trkpt lat="59.45205238647759" lon="18.696282533928752">
        <ele>12.42</ele>
      </trkpt>
      <trkpt lat="59.45199966430664" lon="18.69574785232544">
        <ele>12.46</ele>
      </trkpt>
      <trkpt lat="59.45191886276007" lon="18.695166567340493">
        <ele>13.16</ele>
      </trkpt>
      <trkpt lat="59.451838145032525" lon="18.69458536617458">
        <ele>13.57</ele>
      </trkpt>
      <trkpt lat="59.45175742730498" lon="18.694004165008664">
        <ele>14.08</ele>
      </trkpt>
      <trkpt lat="59.45167779922485" lon="18.693430423736572">
        <ele>14.05</ele>
      </trkpt>
      <trkpt lat="59.45158090442419" lon="18.692849222570658">
        <ele>15.15</ele>
      </trkpt>
      <trkpt lat="59.45148468017578" lon="18.69227170944214">
        <ele>15.1</ele>
      </trkpt>
      <trkpt lat="59.451398849487305" lon="18.691864013671875">
        <ele>15.64</ele>
      </trkpt>
      <trkpt lat="59.451262559741735" lon="18.691476685926318">
        <ele>16.96</ele>
      </trkpt>
      <trkpt lat="59.4511263538152" lon="18.69108935818076">
        <ele>17.43</ele>
      </trkpt>
      <trkpt lat="59.45099123753607" lon="18.69070529937744">
        <ele>17.02</ele>
      </trkpt>
      <trkpt lat="59.45085125975311" lon="18.690328700467944">
        <ele>18.26</ele>
      </trkpt>
      <trkpt lat="59.45071220397949" lon="18.68995428085327">
        <ele>17.72</ele>
      </trkpt>
      <trkpt lat="59.45058345794678" lon="18.689696788787842">
        <ele>17.99</ele>
      </trkpt>
      <trkpt lat="59.45058354176581" lon="18.689696788787842">
        <ele>18.32</ele>
      </trkpt>
      <trkpt lat="59.45042571052909" lon="18.689424293115735">
        <ele>19.26</ele>
      </trkpt>
      <trkpt lat="59.4502679631114" lon="18.68915188126266">
        <ele>19.36</ele>
      </trkpt>
      <trkpt lat="59.450111389160156" lon="18.688881397247314">
        <ele>19.45</ele>
      </trkpt>
      <trkpt lat="59.450272573158145" lon="18.688709316775203">
        <ele>19.58</ele>
      </trkpt>
      <trkpt lat="59.45043325424194" lon="18.688538074493408">
        <ele>19.72</ele>
      </trkpt>
      <trkpt lat="59.450626373291016" lon="18.688409328460693">
        <ele>19.79</ele>
      </trkpt>
      <trkpt lat="59.450889648869634" lon="18.688108334317803">
        <ele>19.86</ele>
      </trkpt>
      <trkpt lat="59.45115300826728" lon="18.687807340174913">
        <ele>19.75</ele>
      </trkpt>
      <trkpt lat="59.45141477510333" lon="18.687508273869753">
        <ele>19.43</ele>
      </trkpt>
      <trkpt lat="59.45152759552002" lon="18.687379360198975">
        <ele>19.09</ele>
      </trkpt>
      <trkpt lat="59.45173186250031" lon="18.687089011073112">
        <ele>18.61</ele>
      </trkpt>
      <trkpt lat="59.45193529129028" lon="18.686800003051758">
        <ele>18.02</ele>
      </trkpt>
      <trkpt lat="59.452118100598454" lon="18.686488112434745">
        <ele>17.4</ele>
      </trkpt>
      <trkpt lat="59.45230015553534" lon="18.686177730560303">
        <ele>16.76</ele>
      </trkpt>
      <trkpt lat="59.45247215218842" lon="18.68591965176165">
        <ele>16.12</ele>
      </trkpt>
      <trkpt lat="59.452643394470215" lon="18.685662746429443">
        <ele>15.43</ele>
      </trkpt>
      <trkpt lat="59.452869119122624" lon="18.685436937958002">
        <ele>14.8</ele>
      </trkpt>
      <trkpt lat="59.45309400558472" lon="18.68521213531494">
        <ele>14.09</ele>
      </trkpt>
      <trkpt lat="59.45330900140107" lon="18.68495942093432">
        <ele>13.44</ele>
      </trkpt>
      <trkpt lat="59.45352399721742" lon="18.68470679037273">
        <ele>12.78</ele>
      </trkpt>
      <trkpt lat="59.45373899303377" lon="18.68445415981114">
        <ele>12.19</ele>
      </trkpt>
      <trkpt lat="59.45395231246948" lon="18.684203624725342">
        <ele>11.58</ele>
      </trkpt>
      <trkpt lat="59.4540810585022" lon="18.68398904800415">
        <ele>10.94</ele>
      </trkpt>
      <trkpt lat="59.454166889190674" lon="18.68373155593872">
        <ele>10.38</ele>
      </trkpt>
      <trkpt lat="59.4542916957289" lon="18.683288237079978">
        <ele>9.86</ele>
      </trkpt>
      <trkpt lat="59.45441650226712" lon="18.682844918221235">
        <ele>9.33</ele>
      </trkpt>
      <trkpt lat="59.45454139262438" lon="18.682401599362493">
        <ele>8.95</ele>
      </trkpt>
      <trkpt lat="59.4546661991626" lon="18.68195828050375">
        <ele>8.7</ele>
      </trkpt>
      <trkpt lat="59.45478924550116" lon="18.68152141571045">
        <ele>8.59</ele>
      </trkpt>
      <trkpt lat="59.454874992370605" lon="18.681135177612305">
        <ele>8.61</ele>
      </trkpt>
      <trkpt lat="59.454939533025026" lon="18.68059161119163">
        <ele>8.76</ele>
      </trkpt>
      <trkpt lat="59.45500415749848" lon="18.680048044770956">
        <ele>9.1</ele>
      </trkpt>
      <trkpt lat="59.4550686981529" lon="18.67950447835028">
        <ele>9.52</ele>
      </trkpt>
      <trkpt lat="59.455132484436035" lon="18.67896795272827">
        <ele>10.11</ele>
      </trkpt>
      <trkpt lat="59.45532560348511" lon="18.678860664367676">
        <ele>10.8</ele>
      </trkpt>
      <trkpt lat="59.45556163787842" lon="18.678839206695557">
        <ele>11.68</ele>
      </trkpt>
      <trkpt lat="59.45559591986239" lon="18.678847085684538">
        <ele>12.5</ele>
      </trkpt>
      <trkpt lat="59.45584058761597" lon="18.678903579711914">
        <ele>13.51</ele>
      </trkpt>
      <trkpt lat="59.456066228449345" lon="18.679011035710573">
        <ele>14.46</ele>
      </trkpt>
      <trkpt lat="59.45629119873047" lon="18.679118156433105">
        <ele>15.37</ele>
      </trkpt>
      <trkpt lat="59.45646311156452" lon="18.678978346288204">
        <ele>16.34</ele>
      </trkpt>
      <trkpt lat="59.456634521484375" lon="18.678839206695557">
        <ele>17.34</ele>
      </trkpt>
      <trkpt lat="59.45687809959054" lon="18.678738875314593">
        <ele>18.31</ele>
      </trkpt>
      <trkpt lat="59.457121677696705" lon="18.67863854393363">
        <ele>19.17</ele>
      </trkpt>
      <trkpt lat="59.457364082336426" lon="18.67853879928589">
        <ele>19.97</ele>
      </trkpt>
      <trkpt lat="59.45739274844527" lon="18.679077001288533">
        <ele>20.62</ele>
      </trkpt>
      <trkpt lat="59.45742149837315" lon="18.679615203291178">
        <ele>21.25</ele>
      </trkpt>
      <trkpt lat="59.457449996843934" lon="18.680148124694824">
        <ele>21.7</ele>
      </trkpt>
      <trkpt lat="59.45751445367932" lon="18.680632431060076">
        <ele>22.05</ele>
      </trkpt>
      <trkpt lat="59.45757865905762" lon="18.681113719940186">
        <ele>22.21</ele>
      </trkpt>
      <trkpt lat="59.45770740509033" lon="18.68152141571045">
        <ele>22.28</ele>
      </trkpt>
      <trkpt lat="59.45775032043457" lon="18.681864738464355">
        <ele>22.19</ele>
      </trkpt>
      <trkpt lat="59.45770723745227" lon="18.68238139897585">
        <ele>22.01</ele>
      </trkpt>
      <trkpt lat="59.457664573565125" lon="18.682894706726074">
        <ele>21.81</ele>
      </trkpt>
      <trkpt lat="59.457707572728395" lon="18.683357555419207">
        <ele>21.72</ele>
      </trkpt>
      <trkpt lat="59.45775032043457" lon="18.683817386627197">
        <ele>21.47</ele>
      </trkpt>
      <trkpt lat="59.457764653488994" lon="18.68424796499312">
        <ele>20.98</ele>
      </trkpt>
      <trkpt lat="59.45777898654342" lon="18.68467854335904">
        <ele>20.26</ele>
      </trkpt>
      <trkpt lat="59.45779323577881" lon="18.685104846954346">
        <ele>19.51</ele>
      </trkpt>
      <trkpt lat="59.45783615112305" lon="18.685362339019775">
        <ele>18.68</ele>
      </trkpt>
      <trkpt lat="59.45795450359583" lon="18.685846561565995">
        <ele>17.72</ele>
      </trkpt>
      <trkpt lat="59.45807226933539" lon="18.686327934265137">
        <ele>16.64</ele>
      </trkpt>
      <trkpt lat="59.45824418216944" lon="18.686510659754276">
        <ele>15.72</ele>
      </trkpt>
      <trkpt lat="59.458415508270264" lon="18.686692714691162">
        <ele>14.78</ele>
      </trkpt>
      <trkpt lat="59.458490777760744" lon="18.6870585847646">
        <ele>13.8</ele>
      </trkpt>
      <trkpt lat="59.4585657119751" lon="18.687422275543213">
        <ele>12.84</ele>
      </trkpt>
      <trkpt lat="59.45871591567993" lon="18.68795871734619">
        <ele>11.93</ele>
      </trkpt>
      <trkpt lat="59.45873737335205" lon="18.68845224380493">
        <ele>11.27</ele>
      </trkpt>
      <trkpt lat="59.45870501920581" lon="18.68882892653346">
        <ele>10.86</ele>
      </trkpt>
      <trkpt lat="59.45867300033569" lon="18.6892032623291">
        <ele>10.5</ele>
      </trkpt>
      <trkpt lat="59.45858683437109" lon="18.68954759091139">
        <ele>10.29</ele>
      </trkpt>
      <trkpt lat="59.45850133895874" lon="18.689889907836914">
        <ele>10.09</ele>
      </trkpt>
      <trkpt lat="59.45858742110431" lon="18.689545495435596">
        <ele>10.27</ele>
      </trkpt>
      <trkpt lat="59.45867300033569" lon="18.6892032623291">
        <ele>10.5</ele>
      </trkpt>
      <trkpt lat="59.458705270662904" lon="18.68882649578154">
        <ele>10.8</ele>
      </trkpt>
      <trkpt lat="59.45873737335205" lon="18.68845224380493">
        <ele>11.27</ele>
      </trkpt>
      <trkpt lat="59.45871591567993" lon="18.68795871734619">
        <ele>11.93</ele>
      </trkpt>
      <trkpt lat="59.4585657119751" lon="18.687422275543213">
        <ele>12.84</ele>
      </trkpt>
      <trkpt lat="59.458490358665586" lon="18.687056321650743">
        <ele>13.64</ele>
      </trkpt>
      <trkpt lat="59.458415508270264" lon="18.686692714691162">
        <ele>14.78</ele>
      </trkpt>
      <trkpt lat="59.458243511617184" lon="18.68650990538299">
        <ele>15.48</ele>
      </trkpt>
      <trkpt lat="59.45807226933539" lon="18.686327934265137">
        <ele>16.64</ele>
      </trkpt>
      <trkpt lat="59.457953833043575" lon="18.685843627899885">
        <ele>17.38</ele>
      </trkpt>
      <trkpt lat="59.45783615112305" lon="18.685362339019775">
        <ele>18.68</ele>
      </trkpt>
      <trkpt lat="59.45779323577881" lon="18.685104846954346">
        <ele>19.51</ele>
      </trkpt>
      <trkpt lat="59.45777881890535" lon="18.684674184769392">
        <ele>19.75</ele>
      </trkpt>
      <trkpt lat="59.45776448585093" lon="18.68424360640347">
        <ele>20.41</ele>
      </trkpt>
      <trkpt lat="59.45775032043457" lon="18.683817386627197">
        <ele>21.47</ele>
      </trkpt>
      <trkpt lat="59.45770723745227" lon="18.683354454115033">
        <ele>21.05</ele>
      </trkpt>
      <trkpt lat="59.457664573565125" lon="18.682894706726074">
        <ele>21.81</ele>
      </trkpt>
      <trkpt lat="59.457707572728395" lon="18.68237796239555">
        <ele>21.26</ele>
      </trkpt>
      <trkpt lat="59.45775032043457" lon="18.681864738464355">
        <ele>22.19</ele>
      </trkpt>
      <trkpt lat="59.45770740509033" lon="18.68152141571045">
        <ele>22.28</ele>
      </trkpt>
      <trkpt lat="59.45757865905762" lon="18.681113719940186">
        <ele>22.21</ele>
      </trkpt>
      <trkpt lat="59.457514118403196" lon="18.680629329755902">
        <ele>21.32</ele>
      </trkpt>
      <trkpt lat="59.457449996843934" lon="18.680148124694824">
        <ele>21.7</ele>
      </trkpt>
      <trkpt lat="59.457421246916056" lon="18.679609838873148">
        <ele>20.66</ele>
      </trkpt>
      <trkpt lat="59.45739258080721" lon="18.679071636870503">
        <ele>20.16</ele>
      </trkpt>
      <trkpt lat="59.45736416615546" lon="18.67853879928589">
        <ele>19.67</ele>
      </trkpt>
      <trkpt lat="59.45753574371338" lon="18.678431510925293">
        <ele>19.15</ele>
      </trkpt>
      <trkpt lat="59.45775032043457" lon="18.678131103515625">
        <ele>18.59</ele>
      </trkpt>
      <trkpt lat="59.4579438585788" lon="18.677700776606798">
        <ele>17.98</ele>
      </trkpt>
      <trkpt lat="59.458137480542064" lon="18.677270533517003">
        <ele>17.36</ele>
      </trkpt>
      <trkpt lat="59.45832967758179" lon="18.676843643188477">
        <ele>16.56</ele>
      </trkpt>
      <trkpt lat="59.45852279663086" lon="18.67673635482788">
        <ele>15.29</ele>
      </trkpt>
      <trkpt lat="59.45873737335205" lon="18.676929473876953">
        <ele>14.76</ele>
      </trkpt>
      <trkpt lat="59.458783976733685" lon="18.676845571026206">
        <ele>14.2</ele>
      </trkpt>
      <trkpt lat="59.45873737335205" lon="18.676929473876953">
        <ele>14.76</ele>
      </trkpt>
      <trkpt lat="59.45852279663086" lon="18.67673635482788">
        <ele>15.29</ele>
      </trkpt>
      <trkpt lat="59.45832967758179" lon="18.676843643188477">
        <ele>16.56</ele>
      </trkpt>
      <trkpt lat="59.458136055618525" lon="18.67727388627827">
        <ele>15.4</ele>
      </trkpt>
      <trkpt lat="59.45794243365526" lon="18.677704129368067">
        <ele>15.5</ele>
      </trkpt>
      <trkpt lat="59.45775032043457" lon="18.678131103515625">
        <ele>18.59</ele>
      </trkpt>
      <trkpt lat="59.45753574371338" lon="18.678431510925293">
        <ele>19.15</ele>
      </trkpt>
      <trkpt lat="59.45736416615546" lon="18.67853879928589">
        <ele>19.67</ele>
      </trkpt>
      <trkpt lat="59.45712050423026" lon="18.67863904684782">
        <ele>15.33</ele>
      </trkpt>
      <trkpt lat="59.456876926124096" lon="18.678739378228784">
        <ele>15.11</ele>
      </trkpt>
      <trkpt lat="59.456634521484375" lon="18.678839206695557">
        <ele>17.34</ele>
      </trkpt>
      <trkpt lat="59.456462524831295" lon="18.678978933021426">
        <ele>14.4</ele>
      </trkpt>
      <trkpt lat="59.45629119873047" lon="18.679118156433105">
        <ele>15.37</ele>
      </trkpt>
      <trkpt lat="59.45606547407806" lon="18.679010616615415">
        <ele>13.68</ele>
      </trkpt>
      <trkpt lat="59.45584058761597" lon="18.678903579711914">
        <ele>13.51</ele>
      </trkpt>
      <trkpt lat="59.45556163787842" lon="18.678839206695557">
        <ele>11.68</ele>
      </trkpt>
      <trkpt lat="59.45532560348511" lon="18.678860664367676">
        <ele>10.8</ele>
      </trkpt>
      <trkpt lat="59.455132484436035" lon="18.67896795272827">
        <ele>10.11</ele>
      </trkpt>
      <trkpt lat="59.454907262697816" lon="18.67854818701744">
        <ele>11.44</ele>
      </trkpt>
      <trkpt lat="59.45478346198797" lon="18.67831760086119">
        <ele>11.18</ele>
      </trkpt>
      <trkpt lat="59.454660415649414" lon="18.678088188171387">
        <ele>10.93</ele>
      </trkpt>
      <trkpt lat="59.454660415649414" lon="18.677959442138672">
        <ele>10.71</ele>
      </trkpt>
      <trkpt lat="59.45474624633789" lon="18.67753028869629">
        <ele>10.47</ele>
      </trkpt>
      <trkpt lat="59.45474624633789" lon="18.67725133895874">
        <ele>10.28</ele>
      </trkpt>
      <trkpt lat="59.454660415649414" lon="18.676865100860596">
        <ele>10.23</ele>
      </trkpt>
      <trkpt lat="59.45453125052154" lon="18.676484897732735">
        <ele>10.28</ele>
      </trkpt>
      <trkpt lat="59.4544021692127" lon="18.676104778423905">
        <ele>10.4</ele>
      </trkpt>
      <trkpt lat="59.45427417755127" lon="18.67572784423828">
        <ele>10.47</ele>
      </trkpt>
      <trkpt lat="59.45418834686279" lon="18.675642013549805">
        <ele>10.54</ele>
      </trkpt>
      <trkpt lat="59.45393085479736" lon="18.675599098205566">
        <ele>10.67</ele>
      </trkpt>
      <trkpt lat="59.45380210876465" lon="18.67551326751709">
        <ele>10.76</ele>
      </trkpt>
      <trkpt lat="59.453630447387695" lon="18.675127029418945">
        <ele>10.83</ele>
      </trkpt>
      <trkpt lat="59.453651905059814" lon="18.674826622009277">
        <ele>10.9</ele>
      </trkpt>
      <trkpt lat="59.45371627807617" lon="18.67454767227173">
        <ele>10.89</ele>
      </trkpt>
      <trkpt lat="59.453887939453125" lon="18.674182891845703">
        <ele>10.88</ele>
      </trkpt>
      <trkpt lat="59.454145431518555" lon="18.673861026763916">
        <ele>10.94</ele>
      </trkpt>
      <trkpt lat="59.45429563522339" lon="18.673582077026367">
        <ele>10.96</ele>
      </trkpt>
      <trkpt lat="59.45437090471387" lon="18.673162311315536">
        <ele>11.04</ele>
      </trkpt>
      <trkpt lat="59.45444583892822" lon="18.67274522781372">
        <ele>11.21</ele>
      </trkpt>
      <trkpt lat="59.45444583892822" lon="18.6727237701416">
        <ele>11.27</ele>
      </trkpt>
      <trkpt lat="59.45444583892822" lon="18.67237927392125">
        <ele>11.38</ele>
      </trkpt>
      <trkpt lat="59.45444583892822" lon="18.67203712463379">
        <ele>11.43</ele>
      </trkpt>
      <trkpt lat="59.45437048561871" lon="18.67166044190526">
        <ele>11.44</ele>
      </trkpt>
      <trkpt lat="59.45429563522339" lon="18.67128610610962">
        <ele>11.41</ele>
      </trkpt>
      <trkpt lat="59.454281218349934" lon="18.670833986252546">
        <ele>11.47</ele>
      </trkpt>
      <trkpt lat="59.45426688529551" lon="18.670381866395473">
        <ele>11.51</ele>
      </trkpt>
      <trkpt lat="59.45425271987915" lon="18.669934272766113">
        <ele>11.56</ele>
      </trkpt>
      <trkpt lat="59.45418834686279" lon="18.669397830963135">
        <ele>11.64</ele>
      </trkpt>
      <trkpt lat="59.45406991057098" lon="18.668956607580185">
        <ele>11.87</ele>
      </trkpt>
      <trkpt lat="59.45395231246948" lon="18.66851806640625">
        <ele>12.3</ele>
      </trkpt>
      <trkpt lat="59.45380210876465" lon="18.66830348968506">
        <ele>12.58</ele>
      </trkpt>
      <trkpt lat="59.453651905059814" lon="18.66826057434082">
        <ele>12.74</ele>
      </trkpt>
      <trkpt lat="59.45348024368286" lon="18.668110370635986">
        <ele>12.88</ele>
      </trkpt>
      <trkpt lat="59.45333003997803" lon="18.66774559020996">
        <ele>13.08</ele>
      </trkpt>
      <trkpt lat="59.453254686668515" lon="18.667433448135853">
        <ele>13.29</ele>
      </trkpt>
      <trkpt lat="59.45317983627319" lon="18.667123317718506">
        <ele>13.45</ele>
      </trkpt>
      <trkpt lat="59.453158378601074" lon="18.66673707962036">
        <ele>13.58</ele>
      </trkpt>
      <trkpt lat="59.453201377764344" lon="18.66637104190886">
        <ele>13.76</ele>
      </trkpt>
      <trkpt lat="59.45324420928955" lon="18.66600751876831">
        <ele>13.9</ele>
      </trkpt>
      <trkpt lat="59.45325493812561" lon="18.66568456403911">
        <ele>13.98</ele>
      </trkpt>
      <trkpt lat="59.45326566696167" lon="18.665363788604736">
        <ele>14.05</ele>
      </trkpt>
      <trkpt lat="59.45320129394531" lon="18.665149211883545">
        <ele>14.01</ele>
      </trkpt>
      <trkpt lat="59.45322275161743" lon="18.66499900817871">
        <ele>14.06</ele>
      </trkpt>
      <trkpt lat="59.45316885598004" lon="18.66467605344951">
        <ele>14.03</ele>
      </trkpt>
      <trkpt lat="59.453115463256836" lon="18.664355278015137">
        <ele>13.97</ele>
      </trkpt>
      <trkpt lat="59.453115463256836" lon="18.66401195526123">
        <ele>13.99</ele>
      </trkpt>
      <trkpt lat="59.452965259552" lon="18.66349697113037">
        <ele>14.02</ele>
      </trkpt>
      <trkpt lat="59.452900886535645" lon="18.663153648376465">
        <ele>14.13</ele>
      </trkpt>
      <trkpt lat="59.45286635309458" lon="18.662760201841593">
        <ele>14.24</ele>
      </trkpt>
      <trkpt lat="59.452832071110606" lon="18.662369353696704">
        <ele>14.32</ele>
      </trkpt>
      <trkpt lat="59.452832071110606" lon="18.662369437515736">
        <ele>14.38</ele>
      </trkpt>
      <trkpt lat="59.45279359817505" lon="18.661930561065674">
        <ele>14.42</ele>
      </trkpt>
      <trkpt lat="59.45281505584717" lon="18.661608695983887">
        <ele>14.55</ele>
      </trkpt>
      <trkpt lat="59.45257902145386" lon="18.66180181503296">
        <ele>14.54</ele>
      </trkpt>
      <trkpt lat="59.45236578583717" lon="18.661785973235965">
        <ele>14.65</ele>
      </trkpt>
      <trkpt lat="59.45215338841081" lon="18.661770299077034">
        <ele>14.81</ele>
      </trkpt>
      <trkpt lat="59.45199966430664" lon="18.66175889968872">
        <ele>15.0</ele>
      </trkpt>
      <trkpt lat="59.45182808674872" lon="18.662188053131104">
        <ele>15.28</ele>
      </trkpt>
      <trkpt lat="59.45182800292969" lon="18.662188053131104">
        <ele>15.54</ele>
      </trkpt>
      <trkpt lat="59.45154905319214" lon="18.662080764770508">
        <ele>15.81</ele>
      </trkpt>
      <trkpt lat="59.451323160901666" lon="18.661693604663014">
        <ele>16.12</ele>
      </trkpt>
      <trkpt lat="59.45109844207764" lon="18.66130828857422">
        <ele>16.5</ele>
      </trkpt>
      <trkpt lat="59.450883362442255" lon="18.66102154366672">
        <ele>16.88</ele>
      </trkpt>
      <trkpt lat="59.450668366625905" lon="18.660734798759222">
        <ele>17.34</ele>
      </trkpt>
      <trkpt lat="59.45045471191406" lon="18.660449981689453">
        <ele>17.88</ele>
      </trkpt>
      <trkpt lat="59.450305849313736" lon="18.660159716382623">
        <ele>18.41</ele>
      </trkpt>
      <trkpt lat="59.450157741084695" lon="18.65987087599933">
        <ele>18.9</ele>
      </trkpt>
      <trkpt lat="59.45002555847168" lon="18.659613132476807">
        <ele>19.29</ele>
      </trkpt>
      <trkpt lat="59.44983202032745" lon="18.659462593495846">
        <ele>19.54</ele>
      </trkpt>
      <trkpt lat="59.449639320373535" lon="18.65931272506714">
        <ele>19.66</ele>
      </trkpt>
      <trkpt lat="59.449402866885066" lon="18.659319849684834">
        <ele>19.69</ele>
      </trkpt>
      <trkpt lat="59.44916649721563" lon="18.65932697430253">
        <ele>19.7</ele>
      </trkpt>
      <trkpt lat="59.4489312171936" lon="18.659334182739258">
        <ele>19.68</ele>
      </trkpt>
      <trkpt lat="59.44881948642433" lon="18.65936209447682">
        <ele>19.76</ele>
      </trkpt>
      <trkpt lat="59.44861748255789" lon="18.65941255353391">
        <ele>19.82</ele>
      </trkpt>
      <trkpt lat="59.448416233062744" lon="18.659462928771973">
        <ele>20.0</ele>
      </trkpt>
      <trkpt lat="59.44826602935791" lon="18.65954875946045">
        <ele>20.15</ele>
      </trkpt>
      <trkpt lat="59.448115825653076" lon="18.65952730178833">
        <ele>20.27</ele>
      </trkpt>
      <trkpt lat="59.447879288345575" lon="18.6593337636441">
        <ele>20.46</ele>
      </trkpt>
      <trkpt lat="59.447643756866455" lon="18.659141063690186">
        <ele>20.65</ele>
      </trkpt>
      <trkpt lat="59.447428761050105" lon="18.659130251035094">
        <ele>20.76</ele>
      </trkpt>
      <trkpt lat="59.44721460342407" lon="18.659119606018066">
        <ele>20.83</ele>
      </trkpt>
      <trkpt lat="59.447128772735596" lon="18.659613132476807">
        <ele>20.74</ele>
      </trkpt>
      <trkpt lat="59.44695711135864" lon="18.65957021713257">
        <ele>20.77</ele>
      </trkpt>
      <trkpt lat="59.44667757488787" lon="18.659340888261795">
        <ele>20.73</ele>
      </trkpt>
      <trkpt lat="59.44639812223613" lon="18.65911155939102">
        <ele>20.78</ele>
      </trkpt>
      <trkpt lat="59.446120262145996" lon="18.658883571624756">
        <ele>21.14</ele>
      </trkpt>
      <trkpt lat="59.445915911346674" lon="18.658593222498894">
        <ele>21.55</ele>
      </trkpt>
      <trkpt lat="59.44571256637573" lon="18.65830421447754">
        <ele>22.01</ele>
      </trkpt>
      <trkpt lat="59.44554090499878" lon="18.6582612991333">
        <ele>22.49</ele>
      </trkpt>
      <trkpt lat="59.445390701293945" lon="18.658319050446153">
        <ele>22.8</ele>
      </trkpt>
      <trkpt lat="59.44526195526123" lon="18.658368587493896">
        <ele>23.1</ele>
      </trkpt>
      <trkpt lat="59.44516506046057" lon="18.65804571658373">
        <ele>23.27</ele>
      </trkpt>
      <trkpt lat="59.44506883621216" lon="18.657724857330322">
        <ele>23.38</ele>
      </trkpt>
      <trkpt lat="59.444864485412836" lon="18.657359154894948">
        <ele>23.51</ele>
      </trkpt>
      <trkpt lat="59.444661140441895" lon="18.65699529647827">
        <ele>23.68</ele>
      </trkpt>
      <trkpt lat="59.4444465637207" lon="18.657145500183105">
        <ele>23.86</ele>
      </trkpt>
      <trkpt lat="59.44418907165527" lon="18.657231330871582">
        <ele>23.87</ele>
      </trkpt>
      <trkpt lat="59.44402772001922" lon="18.6570162512362">
        <ele>23.59</ele>
      </trkpt>
      <trkpt lat="59.443867206573486" lon="18.6568021774292">
        <ele>23.3</ele>
      </trkpt>
      <trkpt lat="59.443716667592525" lon="18.65669463761151">
        <ele>22.9</ele>
      </trkpt>
      <trkpt lat="59.44356679916382" lon="18.656587600708008">
        <ele>22.39</ele>
      </trkpt>
      <trkpt lat="59.44342338480055" lon="18.65655792877078">
        <ele>21.76</ele>
      </trkpt>
      <trkpt lat="59.443183494731784" lon="18.656508307904005">
        <ele>21.0</ele>
      </trkpt>
      <trkpt lat="59.44294452667236" lon="18.656458854675293">
        <ele>20.18</ele>
      </trkpt>
      <trkpt lat="59.442880153656006" lon="18.656415939331055">
        <ele>19.43</ele>
      </trkpt>
      <trkpt lat="59.442718885838985" lon="18.656469667330384">
        <ele>18.56</ele>
      </trkpt>
      <trkpt lat="59.44255828857422" lon="18.65652322769165">
        <ele>17.71</ele>
      </trkpt>
      <trkpt lat="59.44227933883667" lon="18.656415939331055">
        <ele>16.86</ele>
      </trkpt>
      <trkpt lat="59.44203207269311" lon="18.65606104955077">
        <ele>15.83</ele>
      </trkpt>
      <trkpt lat="59.44178589619696" lon="18.655707836151123">
        <ele>14.73</ele>
      </trkpt>
      <trkpt lat="59.44157869555056" lon="18.6555864661932">
        <ele>13.7</ele>
      </trkpt>
      <trkpt lat="59.441370740532875" lon="18.655464509502053">
        <ele>12.8</ele>
      </trkpt>
      <trkpt lat="59.441163539886475" lon="18.655343055725098">
        <ele>11.97</ele>
      </trkpt>
      <trkpt lat="59.44105625152588" lon="18.654978275299072">
        <ele>11.11</ele>
      </trkpt>
      <trkpt lat="59.44077730178833" lon="18.65482807159424">
        <ele>10.18</ele>
      </trkpt>
      <trkpt lat="59.44075584411621" lon="18.65476369857788">
        <ele>9.38</ele>
      </trkpt>
      <trkpt lat="59.44075584411621" lon="18.654420375823975">
        <ele>8.61</ele>
      </trkpt>
      <trkpt lat="59.44069147109985" lon="18.65427017211914">
        <ele>7.85</ele>
      </trkpt>
      <trkpt lat="59.440520564094186" lon="18.65417243912816">
        <ele>7.16</ele>
      </trkpt>
      <trkpt lat="59.44035032764077" lon="18.65407520905137">
        <ele>6.72</ele>
      </trkpt>
      <trkpt lat="59.44006978534162" lon="18.6539148632437">
        <ele>6.43</ele>
      </trkpt>
      <trkpt lat="59.43979024887085" lon="18.65375518798828">
        <ele>6.47</ele>
      </trkpt>
      <trkpt lat="59.43957575596869" lon="18.653712272644043">
        <ele>6.61</ele>
      </trkpt>
      <trkpt lat="59.43955002352595" lon="18.65430244244635">
        <ele>7.1</ele>
      </trkpt>
      <trkpt lat="59.43955002352595" lon="18.654302526265383">
        <ele>7.35</ele>
      </trkpt>
      <trkpt lat="59.43953275680542" lon="18.654699325561523">
        <ele>7.83</ele>
      </trkpt>
      <trkpt lat="59.43944692611694" lon="18.655107021331787">
        <ele>8.16</ele>
      </trkpt>
      <trkpt lat="59.43936109542847" lon="18.65527868270874">
        <ele>8.25</ele>
      </trkpt>
      <trkpt lat="59.43925380706787" lon="18.655343055725098">
        <ele>8.15</ele>
      </trkpt>
      <trkpt lat="59.4390606880188" lon="18.655214309692383">
        <ele>7.85</ele>
      </trkpt>
      <trkpt lat="59.43876028060913" lon="18.655171394348145">
        <ele>7.38</ele>
      </trkpt>
      <trkpt lat="59.43852424621582" lon="18.655214309692383">
        <ele>6.95</ele>
      </trkpt>
      <trkpt lat="59.438374042510986" lon="18.65532159805298">
        <ele>7.04</ele>
      </trkpt>
      <trkpt lat="59.438180923461914" lon="18.655643463134766">
        <ele>6.72</ele>
      </trkpt>
      <trkpt lat="59.43809475749731" lon="18.65622466430068">
        <ele>7.4</ele>
      </trkpt>
      <trkpt lat="59.43800926208496" lon="18.6568021774292">
        <ele>6.98</ele>
      </trkpt>
      <trkpt lat="59.43797933869064" lon="18.65691600367427">
        <ele>6.73</ele>
      </trkpt>
    </trkseg>
  </trk>
</gpx>
